[{"OBJECT_NAME":"KUIPER-00092","OBJECT_ID":"2025-151X","EPOCH":"2026-03-08T23:51:42.351552","MEAN_MOTION":14.7992332,"ECCENTRICITY":9.472e-5,"INCLINATION":51.9004,"RA_OF_ASC_NODE":293.6718,"ARG_OF_PERICENTER":52.0654,"MEAN_ANOMALY":308.0393,"EPHEMERIS_TYPE":0,"CLASSIFICATION_TYPE":"U","NORAD_CAT_ID":64837,"ELEMENT_SET_NO":999,"REV_AT_EPOCH":3655,"BSTAR":0.00049486471,"MEAN_MOTION_DOT":3.552e-5,"MEAN_MOTION_DDOT":0},{"OBJECT_NAME":"CZ-6A DEB","OBJECT_ID":"2024-140XT","EPOCH":"2026-03-09T03:39:44.093088","MEAN_MOTION":15.17507252,"ECCENTRICITY":0.01850271,"INCLINATION":89.7161,"RA_OF_ASC_NODE":331.3348,"ARG_OF_PERICENTER":37.6736,"MEAN_ANOMALY":323.7298,"EPHEMERIS_TYPE":0,"CLASSIFICATION_TYPE":"U","NORAD_CAT_ID":61402,"ELEMENT_SET_NO":999,"REV_AT_EPOCH":8199,"BSTAR":0.0011238517,"MEAN_MOTION_DOT":0.00035461,"MEAN_MOTION_DDOT":0}]
